OBJECT_NAME,OBJECT_ID,EPOCH,MEAN_MOTION,ECCENTRICITY,INCLINATION,RA_OF_ASC_NODE,ARG_OF_PERICENTER,MEAN_ANOMALY,EPHEMERIS_TYPE,CLASSIFICATION_TYPE,NORAD_CAT_ID,ELEMENT_SET_NO,REV_AT_EPOCH,BSTAR,MEAN_MOTION_DOT,MEAN_MOTION_DDOT
ONEWEB-0697,2024-188K,2026-06-09T01:27:45.055296,13.11418816,.0001458,87.8894,22.6848,108.2523,251.8764,0,U,61603,999,8338,.13567E-2,.494E-5,0
ONEWEB-0698,2024-188L,2026-06-09T02:45:51.197760,13.11417980,.0000638,87.8892,22.6884,92.1385,267.9815,0,U,61604,999,8341,-.15491E-2,-.536E-5,0
ONEWEB-0699,2024-188M,2026-06-09T02:55:08.355072,13.10370436,.0001389,87.8836,37.8724,100.7325,259.3959,0,U,61605,999,8225,.1337E-2,.479E-5,0
ONEWEB-0700,2024-188N,2026-06-09T02:57:31.550976,13.10370327,.0001759,87.8855,37.7798,104.5921,255.5402,0,U,61606,999,8224,.11353E-2,.409E-5,0
ONEWEB-0701,2024-188P,2026-06-09T01:31:27.026400,13.10370563,.0001332,87.8842,37.8834,108.1927,251.9345,0,U,61607,999,8224,-.13344E-2,-.453E-5,0
ONEWEB-0702,2024-188Q,2026-06-09T02:01:56.186976,13.11415992,.0001708,87.8911,22.5983,118.4972,241.6328,0,U,61608,999,8342,.438E-3,.168E-5,0
ONEWEB-0704,2024-188R,2026-06-09T03:04:41.637216,13.10370012,.0001902,87.8850,37.8590,116.4441,243.6882,0,U,61609,999,8223,.34656E-3,.134E-5,0
ONEWEB-0705,2024-188S,2026-06-09T01:21:54.974592,13.10369179,.0002491,87.8846,37.8791,103.9797,256.1608,0,U,61610,999,7439,.12747E-2,.458E-5,0
ONEWEB-0706,2024-188T,2026-06-09T04:40:19.018848,13.10371363,.0001886,87.8842,37.8571,101.1909,258.9430,0,U,61611,999,8233,.15883E-2,.567E-5,0
ONEWEB-0707,2024-188U,2026-06-09T02:59:54.892896,13.10369938,.0001811,87.8845,37.8645,101.0214,259.1118,0,U,61612,999,8226,.83714E-3,.305E-5,0
ONEWEB-0708,2024-188V,2026-06-09T01:36:13.789728,13.10371033,.0002305,87.8838,37.8952,87.2484,272.8907,0,U,61613,999,8223,-.1702E-2,-.581E-5,0
