ONEWEB-0697             
1 61603U 24188K   26160.06093814  .00000494  00000+0  13567-2 0  9995
2 61603  87.8894  22.6848 0001458 108.2523 251.8764 13.11418816 83380
ONEWEB-0698             
1 61604U 24188L   26160.11517590 -.00000536  00000+0 -15491-2 0  9991
2 61604  87.8892  22.6884 0000638  92.1385 267.9815 13.11417980 83415
ONEWEB-0699             
1 61605U 24188M   26160.12162448  .00000479  00000+0  13370-2 0  9999
2 61605  87.8836  37.8724 0001389 100.7325 259.3959 13.10370436 82257
ONEWEB-0700             
1 61606U 24188N   26160.12328184  .00000409  00000+0  11353-2 0  9993
2 61606  87.8855  37.7798 0001759 104.5921 255.5402 13.10370327 82243
ONEWEB-0701             
1 61607U 24188P   26160.06350725 -.00000453  00000+0 -13344-2 0  9996
2 61607  87.8842  37.8834 0001332 108.1927 251.9345 13.10370563 82243
ONEWEB-0702             
1 61608U 24188Q   26160.08467809  .00000168  00000+0  43800-3 0  9993
2 61608  87.8911  22.5983 0001708 118.4972 241.6328 13.11415992 83423
ONEWEB-0704             
1 61609U 24188R   26160.12825969  .00000134  00000+0  34656-3 0  9996
2 61609  87.8850  37.8590 0001902 116.4441 243.6882 13.10370012 82231
ONEWEB-0705             
1 61610U 24188S   26160.05688628  .00000458  00000+0  12747-2 0  9994
2 61610  87.8846  37.8791 0002491 103.9797 256.1608 13.10369179 74395
ONEWEB-0706             
1 61611U 24188T   26160.19466457  .00000567  00000+0  15883-2 0  9999
2 61611  87.8842  37.8571 0001886 101.1909 258.9430 13.10371363 82334
ONEWEB-0707             
1 61612U 24188U   26160.12494089  .00000305  00000+0  83714-3 0  9994
2 61612  87.8845  37.8645 0001811 101.0214 259.1118 13.10369938 82269
ONEWEB-0708             
1 61613U 24188V   26160.06682627 -.00000581  00000+0 -17020-2 0  9999
2 61613  87.8838  37.8952 0002305  87.2484 272.8907 13.10371033 82230
